$$SOE
2460154.500000000, A.D. 2023-Jul-29 00:00:00.0000, -2.083874657131710E+08, -3.295731806321633E+08, -4.767946020863253E+07,
2460161.500000000, A.D. 2023-Aug-05 00:00:00.0000, -1.999239807919100E+08, -3.357778867410609E+08, -4.843820766060619E+07,
2460168.500000000, A.D. 2023-Aug-12 00:00:00.0000, -1.913016023368363E+08, -3.417156630896062E+08, -4.915844438320567E+07,
2460175.500000000, A.D. 2023-Aug-19 00:00:00.0000, -1.825282404653669E+08, -3.473836712875832E+08, -4.983986814203680E+07,
2460182.500000000, A.D. 2023-Aug-26 00:00:00.0000, -1.736117808906802E+08, -3.527792596743938E+08, -5.048220209381744E+07,
2460189.500000000, A.D. 2023-Sep-02 00:00:00.0000, -1.645600838833007E+08, -3.578999579131019E+08, -5.108519403232194E+07,
2460196.500000000, A.D. 2023-Sep-09 00:00:00.0000, -1.553809834795198E+08, -3.627434719577487E+08, -5.164861568459772E+07,
2460203.500000000, A.D. 2023-Sep-16 00:00:00.0000, -1.460822867479694E+08, -3.673076794521776E+08, -5.217226207735431E+07,
2460210.500000000, A.D. 2023-Sep-23 00:00:00.0000, -1.366717726787183E+08, -3.715906252729219E+08, -5.265595098783074E+07,
2460217.500000000, A.D. 2023-Sep-30 00:00:00.0000, -1.271571910162421E+08, -3.755905160238460E+08, -5.309952235006741E+07,
2460224.500000000, A.D. 2023-Oct-07 00:00:00.0000, -1.175462633722069E+08, -3.793057140224952E+08, -5.350283744420983E+07,
2460231.500000000, A.D. 2023-Oct-14 00:00:00.0000, -1.078466855605052E+08, -3.827347340888225E+08, -5.386577823430370E+07,
2460238.500000000, A.D. 2023-Oct-21 00:00:00.0000, -9.806612791006918E+07, -3.858762415331157E+08, -5.418824701949233E+07,
2460245.500000000, A.D. 2023-Oct-28 00:00:00.0000, -8.821223496603739E+07, -3.887290490822519E+08, -5.447016608286332E+07,
2460252.500000000, A.D. 2023-Nov-04 00:00:00.0000, -7.829262581625225E+07, -3.912921135123796E+08, -5.471147728548422E+07,
2460259.500000000, A.D. 2023-Nov-11 00:00:00.0000, -6.831489485288420E+07, -3.935645325848506E+08, -5.491214167001095E+07,
2460266.500000000, A.D. 2023-Nov-18 00:00:00.0000, -5.828661273732609E+07, -3.955455423462368E+08, -5.507213909828487E+07,
2460273.500000000, A.D. 2023-Nov-25 00:00:00.0000, -4.821532748314075E+07, -3.972345147665965E+08, -5.519146792692095E+07,
2460280.500000000, A.D. 2023-Dec-02 00:00:00.0000, -3.810856561680773E+07, -3.986309557249891E+08, -5.527014472388783E+07,
2460287.500000000, A.D. 2023-Dec-09 00:00:00.0000, -2.797383332746515E+07, -3.997345033999536E+08, -5.530820403777745E+07,
2460294.500000000, A.D. 2023-Dec-16 00:00:00.0000, -1.781861730826930E+07, -4.005449270513010E+08, -5.530569824486324E+07,
2460301.500000000, A.D. 2023-Dec-23 00:00:00.0000, -7.650384931729394E+06, -4.010621255043017E+08, -5.526269744941515E+07,
2460308.500000000, A.D. 2023-Dec-30 00:00:00.0000, 2.523414909623800E+06, -4.012861242847313E+08, -5.517928922817627E+07,
2460315.500000000, A.D. 2024-Jan-06 00:00:00.0000, 1.269534853405252E+07, -4.012170737620327E+08, -5.505557824885687E+07,
2460322.500000000, A.D. 2024-Jan-13 00:00:00.0000, 2.285799495588265E+07, -4.008552501050519E+08, -5.489168620121178E+07,
2460329.500000000, A.D. 2024-Jan-20 00:00:00.0000, 3.300394535852913E+07, -4.002010559658726E+08, -5.468775190119937E+07,
2460336.500000000, A.D. 2024-Jan-27 00:00:00.0000, 4.312580253525473E+07, -3.992550202399540E+08, -5.444393132913643E+07,
2460343.500000000, A.D. 2024-Feb-03 00:00:00.0000, 5.321617987775987E+07, -3.980177978510765E+08, -5.416039764024630E+07,
2460350.500000000, A.D. 2024-Feb-10 00:00:00.0000, 6.326770019819357E+07, -3.964901698522092E+08, -5.383734119697437E+07,
2460357.500000000, A.D. 2024-Feb-17 00:00:00.0000, 7.327299453088769E+07, -3.946730438342242E+08, -5.347496963514319E+07,
2460364.500000000, A.D. 2024-Feb-24 00:00:00.0000, 8.322470095686239E+07, -3.925674546266278E+08, -5.307350796573839E+07,
2460371.500000000, A.D. 2024-Mar-02 00:00:00.0000, 9.311546348778892E+07, -3.901745653207060E+08, -5.263319871706437E+07,
2460378.500000000, A.D. 2024-Mar-09 00:00:00.0000, 1.029379311564695E+08, -3.874956686752877E+08, -5.215430213436659E+07,
2460385.500000000, A.D. 2024-Mar-16 00:00:00.0000, 1.126847577188589E+08, -3.845321887055235E+08, -5.163709645641667E+07,
2460392.500000000, A.D. 2024-Mar-23 00:00:00.0000, 1.223486018753668E+08, -3.812856813447658E+08, -5.108187816883796E+07,
2460399.500000000, A.D. 2024-Mar-30 00:00:00.0000, 1.319221257820720E+08, -3.777578342072436E+08, -5.048896203130659E+07,
2460406.500000000, A.D. 2024-Apr-06 00:00:00.0000, 1.413979921192491E+08, -3.739504688207082E+08, -4.985868117805538E+07,
2460413.500000000, A.D. 2024-Apr-13 00:00:00.0000, 1.507688632795725E+08, -3.698655444954515E+08, -4.919138754979730E+07,
2460420.500000000, A.D. 2024-Apr-20 00:00:00.0000, 1.600274017343101E+08, -3.655051611567016E+08, -4.848745235141587E+07,
2460427.500000000, A.D. 2024-Apr-27 00:00:00.0000, 1.691662700704677E+08, -3.608715617037345E+08, -4.774726644200200E+07,
2460434.500000000, A.D. 2024-May-04 00:00:00.0000, 1.781781307975807E+08, -3.559671345992834E+08, -4.697124072233920E+07,
2460441.500000000, A.D. 2024-May-11 00:00:00.0000, 1.870556461744049E+08, -3.507944167906464E+08, -4.615980654953344E+07,
2460448.500000000, A.D. 2024-May-18 00:00:00.0000, 1.957914781501317E+08, -3.453560969402715E+08, -4.531341618405358E+07,
2460455.500000000, A.D. 2024-May-25 00:00:00.0000, 2.043782884580141E+08, -3.396550189717150E+08, -4.443254327148570E+07,
2460462.500000000, A.D. 2024-Jun-01 00:00:00.0000, 2.128087389356546E+08, -3.336941859863313E+08, -4.351768336863640E+07,
2460469.500000000, A.D. 2024-Jun-08 00:00:00.0000, 2.210754923348518E+08, -3.274767645719276E+08, -4.256935453805584E+07,
2460476.500000000, A.D. 2024-Jun-15 00:00:00.0000, 2.291712140386079E+08, -3.210060889583593E+08, -4.158809800282414E+07,
2460483.500000000, A.D. 2024-Jun-22 00:00:00.0000, 2.370885736979264E+08, -3.142856638459415E+08, -4.057447867298563E+07,
2460490.500000000, A.D. 2024-Jun-29 00:00:00.0000, 2.448202446836041E+08, -3.073191677263908E+08, -3.952908549709250E+07,
2460497.500000000, A.D. 2024-Jul-06 00:00:00.0000, 2.523589040158162E+08, -3.001104591630958E+08, -3.845253208248842E+07,
2460504.500000000, A.D. 2024-Jul-13 00:00:00.0000, 2.596972347416142E+08, -2.926635832026223E+08, -3.734545753162226E+07,
2460511.500000000, A.D. 2024-Jul-20 00:00:00.0000, 2.668279287968864E+08, -2.849827767661353E+08, -3.620852721772316E+07,
2460518.500000000, A.D. 2024-Jul-27 00:00:00.0000, 2.737436897189107E+08, -2.770724739766392E+08, -3.504243351715787E+07,
2460525.500000000, A.D. 2024-Aug-03 00:00:00.0000, 2.804372355048932E+08, -2.689373117915058E+08, -3.384789655292213E+07,
2460532.500000000, A.D. 2024-Aug-10 00:00:00.0000, 2.869013018055367E+08, -2.605821359372472E+08, -3.262566496332847E+07,
2460539.500000000, A.D. 2024-Aug-17 00:00:00.0000, 2.931286455252815E+08, -2.520120071151626E+08, -3.137651669670819E+07,
2460546.500000000, A.D. 2024-Aug-24 00:00:00.0000, 2.991120488824564E+08, -2.432322074880240E+08, -3.010125983462229E+07,
2460553.500000000, A.D. 2024-Aug-31 00:00:00.0000, 3.048443240719077E+08, -2.342482474941752E+08, -2.880073345733155E+07,
2460560.500000000, A.D. 2024-Sep-07 00:00:00.0000, 3.103183189260151E+08, -2.250658728450813E+08, -2.747580857294880E+07,
2460567.500000000, A.D. 2024-Sep-14 00:00:00.0000, 3.155269236943525E+08, -2.156910706935698E+08, -2.612738903498313E+07,
2460574.500000000, A.D. 2024-Sep-21 00:00:00.0000, 3.204630769490496E+08, -2.061300745451993E+08, -2.475641222644483E+07,
2460581.500000000, A.D. 2024-Sep-28 00:00:00.0000, 3.251197701606745E+08, -1.963893711221100E+08, -2.336384972683540E+07,
2460588.500000000, A.D. 2024-Oct-05 00:00:00.0000, 3.294900546458217E+08, -1.864757091526338E+08, -2.195070829499641E+07,
2460595.500000000, A.D. 2024-Oct-12 00:00:00.0000, 3.335670505606633E+08, -1.763961070782228E+08, -2.051803088714783E+07,
2460602.500000000, A.D. 2024-Oct-19 00:00:00.0000, 3.373439562261596E+08, -1.661578599180789E+08, -1.906689756700266E+07,
2460609.500000000, A.D. 2024-Oct-26 00:00:00.0000, 3.408140577893327E+08, -1.557685460586984E+08, -1.759842636517806E+07,
2460616.500000000, A.D. 2024-Nov-02 00:00:00.0000, 3.439707395148594E+08, -1.452360340784671E+08, -1.611377411764480E+07,
2460623.500000000, A.D. 2024-Nov-09 00:00:00.0000, 3.468074948399704E+08, -1.345684895445125E+08, -1.461413728366243E+07,
2460630.500000000, A.D. 2024-Nov-16 00:00:00.0000, 3.493179382527977E+08, -1.237743817352624E+08, -1.310075273806848E+07,
2460637.500000000, A.D. 2024-Nov-23 00:00:00.0000, 3.514958180713847E+08, -1.128624902865673E+08, -1.157489853817826E+07,
2460644.500000000, A.D. 2024-Nov-30 00:00:00.0000, 3.533350303574898E+08, -1.018419117433058E+08, -1.003789467937206E+07,
2460651.500000000, A.D. 2024-Dec-07 00:00:00.0000, 3.548296344101694E+08, -9.072206552381495E+07, -8.491103834557544E+06,
2460658.500000000, A.D. 2024-Dec-14 00:00:00.0000, 3.559738691840150E+08, -7.951269799415380E+07, -6.935931904492062E+06,
2460665.500000000, A.D. 2024-Dec-21 00:00:00.0000, 3.567621683519422E+08, -6.822388581610839E+07, -5.373828256743416E+06,
2460672.500000000, A.D. 2024-Dec-28 00:00:00.0000, 3.571891760135576E+08, -5.686604145813284E+07, -3.806286064858690E+06,
2460679.500000000, A.D. 2025-Jan-04 00:00:00.0000, 3.572497656640273E+08, -4.544991840508145E+07, -2.234842778822925E+06,
2460686.500000000, A.D. 2025-Jan-11 00:00:00.0000, 3.569390606153592E+08, -3.398661431029248E+07, -6.610804100273401E+05,
2460693.500000000, A.D. 2025-Jan-18 00:00:00.0000, 3.562524549604511E+08, -2.248757290509573E+07, 9.133743932122253E+05,
2460700.500000000, A.D. 2025-Jan-25 00:00:00.0000, 3.551856353228586E+08, -1.096458502882808E+07, 2.486850434174777E+06,
2460707.500000000, A.D. 2025-Feb-01 00:00:00.0000, 3.537346035729300E+08, 5.702113095067320E+05, 4.057632216943913E+06,
2460714.500000000, A.D. 2025-Feb-08 00:00:00.0000, 3.518957005507677E+08, 1.210433198352815E+07, 5.623960369844560E+06,
$$EOE